satname,norad_id,inclination_deg,eccentricity,mean_motion_rev_per_day,perigee_km,apogee_km,l1,l2
STARLINK-1286,45417,53.054,0.0001376,15.06417136,546.2061183291944,548.1119597991446,1 45417U 20019BK  25268.12332620 -.00001847  00000+0 -10509-3 0  9994,2 45417  53.0540 189.8762 0001376  96.1227 263.9919 15.06417136304768
STARLINK-1308,45419,53.0542,0.0002019,15.06391843,545.8383251598889,548.6347910026425,1 45419U 20019BM  25267.52253323 -.00002215  00000+0 -12985-3 0  9991,2 45419  53.0542 192.5750 0002019  78.0392 282.0823 15.06391843304422
STARLINK-1329,45531,53.0534,0.0001414,15.06388666,546.2670460357358,548.2255444316279,1 45531U 20025A   25268.02198558  .00000475  00000+0  50809-4 0  9999,2 45531  53.0534 130.3296 0001414  86.3611 273.7540 15.06388666300122
STARLINK-1338,45532,53.0527,0.0001402,15.06400591,546.238812995115,548.1806802228639,1 45532U 20025B   25267.76764567  .00001979  00000+0  15172-3 0  9992,2 45532  53.0527 131.4702 0001402  80.9246 279.1902 15.06400591300089
STARLINK-1350,45535,53.073,0.0002518,15.31139376,470.6867279344342,474.13666425778774,1 45535U 20025E   25268.20605099  .00016806  00000+0  56173-3 0  9990,2 45535  53.0730  87.4541 0002518 124.9615 235.1621 15.31139376300760
STARLINK-1362,45538,53.0535,0.000152,15.0638334,546.2099581673137,548.3152796514614,1 45538U 20025H   25267.86619153 -.00000842  00000+0 -37642-4 0  9996,2 45538  53.0535 130.7481 0001520  90.4501 269.6662 15.06383340300103
STARLINK-1368,45540,53.0523,0.0001241,15.0638525,546.3973235665335,548.1162062989897,1 45540U 20025K   25267.87084663 -.00007809  00000+0 -50613-3 0  9994,2 45540  53.0523 131.0078 0001241  78.7699 281.3430 15.06385250300090
STARLINK-1371,45542,53.0531,0.0001345,15.06395878,546.2927302231774,548.1556523836371,1 45542U 20025M   25267.90771860 -.00000589  00000+0 -20625-4 0  9991,2 45542  53.0531 130.8440 0001345  96.1170 263.9972 15.06395878300100
STARLINK-1372,45543,53.0522,0.0001224,15.06398638,546.3680691008276,548.0633954496889,1 45543U 20025N   25267.87822473  .00004105  00000+0  29435-3 0  9998,2 45543  53.0522 130.9746 0001224  94.3688 265.7441 15.06398638299195
STARLINK-1373,45544,53.0523,0.0001302,15.06413694,546.2679132007434,548.0712630362896,1 45544U 20025P   25266.90144676  .00012657  00000+0  86675-3 0  9994,2 45544  53.0523 135.3612 0001302  86.2670 273.8468 15.06413694299959
STARLINK-1294,45551,53.0507,0.0004907,15.52535082,405.99671138121175,412.65792886498093,1 45551U 20025W   25268.33339120  .00244239  00000+0  38008-2 0  9990,2 45551  53.0507  74.9712 0004907 244.7293  39.0070 15.52535082  5812
STARLINK-1323,45553,53.0356,0.0003766,15.91334565,296.0328971164772,301.0617757586824,1 45553U 20025Y   25268.33339120  .00343798  55521-4  10566-2 0  9994,2 45553  53.0356  56.6648 0003766  80.7637  72.5334 15.91334565  5915
STARLINK-1325,45554,53.061,0.0003519,15.46738401,423.8804369918889,428.66938209382533,1 45554U 20025Z   25268.16377151  .00100265  00000+0  19546-2 0  9996,2 45554  53.0610  67.7190 0003519 348.6901  11.4026 15.46738401301028
STARLINK-1327,45555,53.0545,0.0001297,15.06416611,546.2624369785608,548.0588591884734,1 45555U 20025AA  25268.26707206  .00002194  00000+0  16608-3 0  9995,2 45555  53.0545 109.2303 0001297 103.0587 257.0547 15.06416611300430
STARLINK-1336,45557,53.0392,0.0003804,15.87048733,308.0178283159612,313.10659067454526,1 45557U 20025AC  25268.33339120  .00398768  00000+0  14413-2 0  9997,2 45557  53.0392  62.3456 0003804 121.0712  81.6078 15.87048733  6007
STARLINK-1342,45558,53.0432,0.0001314,15.98164478,278.6366354492584,280.38626546203795,1 45558U 20025AD  25268.33339120  .00554833  14278-3  11793-2 0  9999,2 45558  53.0432  58.6209 0001314  62.2986 342.4955 15.98164478  5974
STARLINK-1356,45564,53.0524,0.0001306,15.06402605,546.2991245210069,548.108023478936,1 45564U 20025AK  25268.27077976  .00001995  00000+0  15276-3 0  9998,2 45564  53.0524 109.2121 0001306  88.4138 271.7001 15.06402605300430
STARLINK-1357,45565,53.0635,0.0008355,15.25752247,482.79041066318314,494.2646070574883,1 45565U 20025AL  25268.24789665  .00090750  00000+0  34768-2 0  9994,2 45565  53.0635 100.1081 0008355 131.1200 229.0520 15.25752247300563
STARLINK-1361,45567,53.0522,0.0001348,15.06404077,546.2655272474249,548.132597849888,1 45567U 20025AN  25267.89113746 -.00000230  00000+0  34372-5 0  9996,2 45567  53.0522 110.9168 0001348  82.1833 277.9309 15.06404077300388
STARLINK-1363,45568,53.0514,0.0001404,15.06390554,546.2681857168618,548.212831721311,1 45568U 20025AP  25267.97225268 -.00000236  00000+0  30230-5 0  9994,2 45568  53.0514 110.7936 0001404  90.6929 269.4221 15.06390554300387
STARLINK-1366,45569,53.0532,0.0001736,15.06387575,546.0473919149617,548.4518861560355,1 45569U 20025AQ  25268.29290323 -.00000880  00000+0 -40214-4 0  9993,2 45569  53.0532 109.1125 0001736  87.0858 273.0329 15.06387575300434
STARLINK-1376,45570,53.0537,0.0001259,15.06395572,546.3532260617121,548.0970322458325,1 45570U 20025AR  25267.88744312 -.00000120  00000+0  10806-4 0  9991,2 45570  53.0537 110.9324 0001259  82.2504 277.8628 15.06395572300370
STARLINK-1320,45572,53.0604,0.0008807,15.35940005,452.1091454654843,464.150545887459,1 45572U 20025AT  25266.67579911  .00163231  00000+0  45067-2 0  9997,2 45572  53.0604  68.5085 0008807 190.1300 169.9526 15.35940005300881
STARLINK-1321,45573,53.0537,0.0001379,15.06399496,546.2580968469665,548.1681084052698,1 45573U 20025AU  25268.27170855  .00003506  00000+0  25415-3 0  9994,2 45573  53.0537  99.2077 0001379  88.8241 271.2906 15.06399496300275
STARLINK-1328,45576,53.0545,0.0002919,15.55875169,397.63138936679934,401.58823795661465,1 45576U 20025AX  25268.33339120  .00235548  00000+0  32502-2 0  9993,2 45576  53.0545  89.5426 0002919 223.3930 297.5221 15.55875169  5665
STARLINK-1331,45578,53.0524,0.0001176,15.06398195,546.4026683678485,548.0315116498195,1 45578U 20025AZ  25268.24958843  .00001286  00000+0  10524-3 0  9995,2 45578  53.0524  99.3070 0001176  89.0662 271.0462 15.06398195300589
STARLINK-1333,45580,53.0516,0.0001297,15.06402074,546.3069845507553,548.1034183178081,1 45580U 20025BB  25268.25605004  .00002682  00000+0  19887-3 0  9999,2 45580  53.0516 109.2798 0001297  89.6938 270.4200 15.06402074300436
STARLINK-1335,45581,53.0536,0.0001414,15.06395662,546.2456071493389,548.2040994814552,1 45581U 20025BC  25267.86256247  .00000194  00000+0  31890-4 0  9992,2 45581  53.0536 101.0441 0001414  93.2123 266.9028 15.06395662300513
STARLINK-1337,45582,53.0537,0.0001351,15.0638485,546.3223700321569,548.1936117586984,1 45582U 20025BD  25267.81832265 -.00002889  00000+0 -17519-3 0  9994,2 45582  53.0537 101.2439 0001351  87.4551 272.6593 15.06384850300501
STARLINK-1347,45586,53.0589,0.0007436,15.25028391,485.5925150416024,495.8078496992239,1 45586U 20025BH  25267.83494591  .00088255  00000+0  34576-2 0  9996,2 45586  53.0589  92.3383 0007436 135.1447 225.0152 15.25028391300627
STARLINK-1360,45588,53.0494,0.0003606,15.67305047,364.1854454763452,369.0497624967411,1 45588U 20025BK  25268.00002315  .00024672  00000+0  22922-3 0  9993,2 45588  53.0494  21.5177 0003606 354.3259 331.3954 15.67305047  5872
STARLINK-1364,45589,53.0535,0.0001366,15.06389766,546.2969169542876,548.1889307494848,1 45589U 20025BL  25267.68933691  .00001080  00000+0  91401-4 0  9994,2 45589  53.0535 101.8258 0001366  88.7500 271.3646 15.06389766300488
STARLINK-1365,45590,53.0527,0.0001451,15.0639944,546.2084059333592,548.2181425829485,1 45590U 20025BM  25267.83768144  .00002087  00000+0  15895-3 0  9992,2 45590  53.0527 131.1570 0001451  95.0316 265.0839 15.06399440300108
STARLINK-1443,45660,53.0534,0.0001313,15.06392578,546.3250041403126,548.1436066451088,1 45660U 20035D   25267.82294081  .00000737  00000+0  68374-4 0  9995,2 45660  53.0534  91.2246 0001313  93.2985 266.8155 15.06392578293734
STARLINK-1446,45663,53.0271,0.000506,15.2988986,472.6729831955845,479.60951278254834,1 45663U 20035G   25267.58481067  .00081652  00000+0  27642-2 0  9999,2 45663  53.0271  61.8296 0005060 145.2224 214.9107 15.29889860294125
STARLINK-1448,45665,53.0526,0.0001725,15.06385262,546.0620977357821,548.4513585719942,1 45665U 20035J   25267.76028102 -.00000760  00000+0 -32104-4 0  9992,2 45665  53.0526  91.5022 0001725  85.9509 274.1677 15.06385262293713
STARLINK-1451,45668,53.053,0.0001379,15.06390593,546.285379646487,548.1953987304241,1 45668U 20035M   25267.76399837  .00000108  00000+0  26170-4 0  9991,2 45668  53.0530  91.8046 0001379  87.5505 272.5642 15.06390593293727
STARLINK-1452,45669,53.0461,0.0004938,15.21816164,496.9659418926667,503.7591480432784,1 45669U 20035N   25267.78080794  .00049052  00000+0  21321-2 0  9995,2 45669  53.0461  77.3867 0004938 211.5203 148.5497 15.21816164293925
STARLINK-1453,45670,53.0549,9.53e-05,15.06400531,546.5499449377558,547.8699160627093,1 45670U 20035P   25267.57507684  .00010544  00000+0  72570-3 0  9993,2 45670  53.0549  62.3390 0000953  84.0213 276.0884 15.06400531294003
STARLINK-1454,45671,53.0545,0.000158,15.06386051,546.1600981171796,548.3485217711232,1 45671U 20035Q   25267.78608077 -.00001252  00000+0 -65191-4 0  9995,2 45671  53.0545  91.3882 0001580  93.2652 266.8517 15.06386051293711
STARLINK-1456,45673,53.0534,0.0001019,15.0638346,546.5565529362275,547.9679493036047,1 45673U 20035S   25268.19891116 -.00002216  00000+0 -12997-3 0  9997,2 45673  53.0534  89.5370 0001019  98.1958 261.9147 15.06383460293796
STARLINK-1457,45674,53.0544,0.0001431,15.06396279,546.231943280226,548.2139813014337,1 45674U 20035T   25268.20626945 -.00001189  00000+0 -60931-4 0  9996,2 45674  53.0544  89.5044 0001431  90.1820 269.9333 15.06396279293768
STARLINK-1458,45675,53.0533,0.0001279,15.06408629,546.299362724274,548.070860120376,1 45675U 20035U   25268.19521693  .00001757  00000+0  13677-3 0  9992,2 45675  53.0533  89.5502 0001279  93.3719 266.7417 15.06408629293758
